[
    {
        "Altitude(m)": 558091.7268581472,
        "Argument of Periapsis(deg)": 0.019868973332140504,
        "Eccentricity": 0.0,
        "Inclination(deg)": 53.0,
        "Latitude(deg)": 45.20998460460043,
        "Longitude(deg)": 53.599353070304474,
        "Mean Anomaly(deg)": 117.54757860273277,
        "RAAN(deg)": 24.970430105584054,
        "Satellite Name": "Starlink Shell 1 115",
        "Satellite Number": 115,
        "Semi-Major Axis(m)": 6931778.249405717,
        "Time(s)": 570
    },
    {
        "Altitude(m)": 558017.1262206945,
        "Argument of Periapsis(deg)": 0.02021755181165174,
        "Eccentricity": 0.0,
        "Inclination(deg)": 53.0,
        "Latitude(deg)": 44.878631318108624,
        "Longitude(deg)": 54.309899385904856,
        "Mean Anomaly(deg)": 118.17440980628946,
        "RAAN(deg)": 24.969911335506577,
        "Satellite Name": "Starlink Shell 1 115",
        "Satellite Number": 115,
        "Semi-Major Axis(m)": 6931778.249405717,
        "Time(s)": 580
    },
    {
        "Altitude(m)": 557941.6100657708,
        "Argument of Periapsis(deg)": 0.020566130291162974,
        "Eccentricity": 0.0,
        "Inclination(deg)": 53.0,
        "Latitude(deg)": 44.5423667040781,
        "Longitude(deg)": 55.01181007044032,
        "Mean Anomaly(deg)": 118.8012410098462,
        "RAAN(deg)": 24.969392565429107,
        "Satellite Name": "Starlink Shell 1 115",
        "Satellite Number": 115,
        "Semi-Major Axis(m)": 6931778.249405717,
        "Time(s)": 590
    },
    {
        "Altitude(m)": 557865.2257301845,
        "Argument of Periapsis(deg)": 0.020914708770674213,
        "Eccentricity": 0.0,
        "Inclination(deg)": 53.0,
        "Latitude(deg)": 44.201302387160986,
        "Longitude(deg)": 55.70516156257572,
        "Mean Anomaly(deg)": 119.42807221340291,
        "RAAN(deg)": 24.96887379535163,
        "Satellite Name": "Starlink Shell 1 115",
        "Satellite Number": 115,
        "Semi-Major Axis(m)": 6931778.249405717,
        "Time(s)": 600
    },
    {
        "Altitude(m)": 557788.0211991984,
        "Argument of Periapsis(deg)": 0.021263287250185448,
        "Eccentricity": 0.0,
        "Inclination(deg)": 53.0,
        "Latitude(deg)": 43.85554833826026,
        "Longitude(deg)": 56.390035771174055,
        "Mean Anomaly(deg)": 120.0549034169596,
        "RAAN(deg)": 24.96835502527416,
        "Satellite Name": "Starlink Shell 1 115",
        "Satellite Number": 115,
        "Semi-Major Axis(m)": 6931778.249405717,
        "Time(s)": 610
    },
    {
        "Altitude(m)": 557710.0450825074,
        "Argument of Periapsis(deg)": 0.021611865729696686,
        "Eccentricity": 0.0,
        "Inclination(deg)": 53.0,
        "Latitude(deg)": 43.50521282614899,
        "Longitude(deg)": 57.066520125659395,
        "Mean Anomaly(deg)": 120.68173462051635,
        "RAAN(deg)": 24.967836255196683,
        "Satellite Name": "Starlink Shell 1 115",
        "Satellite Number": 115,
        "Semi-Major Axis(m)": 6931778.249405717,
        "Time(s)": 620
    },
    {
        "Altitude(m)": 557631.346589904,
        "Argument of Periapsis(deg)": 0.02196044420920792,
        "Eccentricity": 0.0,
        "Inclination(deg)": 53.0,
        "Latitude(deg)": 43.150402376378494,
        "Longitude(deg)": 57.734705963149764,
        "Mean Anomaly(deg)": 121.30856582407304,
        "RAAN(deg)": 24.967317485119214,
        "Satellite Name": "Starlink Shell 1 115",
        "Satellite Number": 115,
        "Semi-Major Axis(m)": 6931778.249405717,
        "Time(s)": 630
    },
    {
        "Altitude(m)": 557551.9755066134,
        "Argument of Periapsis(deg)": 0.02230902268871916,
        "Eccentricity": 0.0,
        "Inclination(deg)": 53.0,
        "Latitude(deg)": 42.79122173705285,
        "Longitude(deg)": 58.39468945525632,
        "Mean Anomaly(deg)": 121.93539702762979,
        "RAAN(deg)": 24.96679871504174,
        "Satellite Name": "Starlink Shell 1 115",
        "Satellite Number": 115,
        "Semi-Major Axis(m)": 6931778.249405717,
        "Time(s)": 640
    },
    {
        "Altitude(m)": 557471.9821682993,
        "Argument of Periapsis(deg)": 0.022657601168230398,
        "Eccentricity": 0.0,
        "Inclination(deg)": 53.0,
        "Latitude(deg)": 42.42777385104136,
        "Longitude(deg)": 59.04657003193276,
        "Mean Anomaly(deg)": 122.5622282311865,
        "RAAN(deg)": 24.966279944964267,
        "Satellite Name": "Starlink Shell 1 115",
        "Satellite Number": 115,
        "Semi-Major Axis(m)": 6931778.249405717,
        "Time(s)": 650
    },
    {
        "Altitude(m)": 557391.4174357755,
        "Argument of Periapsis(deg)": 0.023006179647741636,
        "Eccentricity": 0.0,
        "Inclination(deg)": 53.0,
        "Latitude(deg)": 42.06015983421644,
        "Longitude(deg)": 59.69045050496663,
        "Mean Anomaly(deg)": 123.18905943474319,
        "RAAN(deg)": 24.965761174886797,
        "Satellite Name": "Starlink Shell 1 115",
        "Satellite Number": 115,
        "Semi-Major Axis(m)": 6931778.249405717,
        "Time(s)": 660
    },
    {
        "Altitude(m)": 557310.3326694148,
        "Argument of Periapsis(deg)": 0.023354758127252868,
        "Eccentricity": 0.0,
        "Inclination(deg)": 53.0,
        "Latitude(deg)": 41.68847895930825,
        "Longitude(deg)": 60.32643721016656,
        "Mean Anomaly(deg)": 123.81589063829993,
        "RAAN(deg)": 24.96524240480932,
        "Satellite Name": "Starlink Shell 1 115",
        "Satellite Number": 115,
        "Semi-Major Axis(m)": 6931778.249405717,
        "Time(s)": 670
    },
    {
        "Altitude(m)": 557228.7797032932,
        "Argument of Periapsis(deg)": 0.023703336606764106,
        "Eccentricity": 0.0,
        "Inclination(deg)": 53.0,
        "Latitude(deg)": 41.31282864497602,
        "Longitude(deg)": 60.95463865528564,
        "Mean Anomaly(deg)": 124.44272184185662,
        "RAAN(deg)": 24.96472363473185,
        "Satellite Name": "Starlink Shell 1 115",
        "Satellite Number": 115,
        "Semi-Major Axis(m)": 6931778.249405717,
        "Time(s)": 680
    },
    {
        "Altitude(m)": 557146.810819031,
        "Argument of Periapsis(deg)": 0.024051915086275345,
        "Eccentricity": 0.0,
        "Inclination(deg)": 53.0,
        "Latitude(deg)": 40.93330444971543,
        "Longitude(deg)": 61.57516569924379,
        "Mean Anomaly(deg)": 125.06955304541336,
        "RAAN(deg)": 24.96420486465438,
        "Satellite Name": "Starlink Shell 1 115",
        "Satellite Number": 115,
        "Semi-Major Axis(m)": 6931778.249405717,
        "Time(s)": 690
    },
    {
        "Altitude(m)": 557064.4787193976,
        "Argument of Periapsis(deg)": 0.024400493565786583,
        "Eccentricity": 0.0,
        "Inclination(deg)": 53.0,
        "Latitude(deg)": 40.55000007022769,
        "Longitude(deg)": 62.18813174949913,
        "Mean Anomaly(deg)": 125.69638424897008,
        "RAAN(deg)": 24.963686094576904,
        "Satellite Name": "Starlink Shell 1 115",
        "Satellite Number": 115,
        "Semi-Major Axis(m)": 6931778.249405717,
        "Time(s)": 700
    },
    {
        "Altitude(m)": 556981.8365016701,
        "Argument of Periapsis(deg)": 0.024749072045297815,
        "Eccentricity": 0.0,
        "Inclination(deg)": 53.0,
        "Latitude(deg)": 40.16300734389207,
        "Longitude(deg)": 62.79365146434312,
        "Mean Anomaly(deg)": 126.32321545252677,
        "RAAN(deg)": 24.96316732449943,
        "Satellite Name": "Starlink Shell 1 115",
        "Satellite Number": 115,
        "Semi-Major Axis(m)": 6931778.249405717,
        "Time(s)": 710
    },
    {
        "Altitude(m)": 556898.9376307544,
        "Argument of Periapsis(deg)": 0.025097650524809053,
        "Eccentricity": 0.0,
        "Inclination(deg)": 53.0,
        "Latitude(deg)": 39.7724162550023,
        "Longitude(deg)": 63.39184098545694,
        "Mean Anomaly(deg)": 126.9500466560835,
        "RAAN(deg)": 24.96264855442196,
        "Satellite Name": "Starlink Shell 1 115",
        "Satellite Number": 115,
        "Semi-Major Axis(m)": 6931778.249405717,
        "Time(s)": 720
    },
    {
        "Altitude(m)": 556815.8359120699,
        "Argument of Periapsis(deg)": 0.02544622900432029,
        "Eccentricity": 0.0,
        "Inclination(deg)": 53.0,
        "Latitude(deg)": 39.378314944439616,
        "Longitude(deg)": 63.9828181873842,
        "Mean Anomaly(deg)": 127.5768778596402,
        "RAAN(deg)": 24.962129784344487,
        "Satellite Name": "Starlink Shell 1 115",
        "Satellite Number": 115,
        "Semi-Major Axis(m)": 6931778.249405717,
        "Time(s)": 730
    },
    {
        "Altitude(m)": 556732.5854642428,
        "Argument of Periapsis(deg)": 0.02579480748383153,
        "Eccentricity": 0.0,
        "Inclination(deg)": 53.0,
        "Latitude(deg)": 38.9807897224686,
        "Longitude(deg)": 64.56670143053688,
        "Mean Anomaly(deg)": 128.20370906319692,
        "RAAN(deg)": 24.961611014267014,
        "Satellite Name": "Starlink Shell 1 115",
        "Satellite Number": 115,
        "Semi-Major Axis(m)": 6931778.249405717,
        "Time(s)": 740
    },
    {
        "Altitude(m)": 556649.2406916118,
        "Argument of Periapsis(deg)": 0.026143385963342765,
        "Eccentricity": 0.0,
        "Inclination(deg)": 53.0,
        "Latitude(deg)": 38.57992508436547,
        "Longitude(deg)": 65.14360984293751,
        "Mean Anomaly(deg)": 128.83054026675367,
        "RAAN(deg)": 24.961092244189537,
        "Satellite Name": "Starlink Shell 1 115",
        "Satellite Number": 115,
        "Semi-Major Axis(m)": 6931778.249405717,
        "Time(s)": 750
    }
]